OBJECT_NAME,OBJECT_ID,EPOCH,MEAN_MOTION,ECCENTRICITY,INCLINATION,RA_OF_ASC_NODE,ARG_OF_PERICENTER,MEAN_ANOMALY,EPHEMERIS_TYPE,CLASSIFICATION_TYPE,NORAD_CAT_ID,ELEMENT_SET_NO,REV_AT_EPOCH,BSTAR,MEAN_MOTION_DOT,MEAN_MOTION_DDOT
INTELSAT 902 (IS-902),2001-039A,2026-07-15T11:25:18.200640,1.00272544,.00042209,6.1857,71.4350,41.7929,301.3181,0,U,26900,999,9097,0,-.297E-5,0
INTELSAT 904 (IS-904),2002-007A,2026-07-15T09:47:54.958272,1.00270592,.0005365,6.9884,68.8417,25.7006,314.2180,0,U,27380,999,5204,0,-.239E-5,0
DIRECTV 5 (TEMPO 1),2002-023A,2026-07-15T14:33:28.571616,1.00271354,.00030977,4.9484,74.9542,46.6638,280.0859,0,U,27426,999,8840,0,-.7E-6,0
INTELSAT 905 (IS-905),2002-027A,2026-07-15T17:51:02.673216,1.00271188,.00034396,6.8231,69.4519,47.2275,307.4543,0,U,27438,999,5164,0,.8E-6,0
GALAXY 3C (G-3C),2002-030A,2026-07-15T19:45:46.594080,1.00270773,.00015617,3.8058,77.6036,33.5687,24.1001,0,U,27445,999,4678,0,-.165E-5,0
INTELSAT 906 (IS-906),2002-041A,2026-07-15T18:48:26.004384,1.00273269,.00038002,5.8724,72.5671,25.6455,181.6753,0,U,27513,999,8731,0,-.1E-7,0
GALAXY 13 (HORIZONS-1),2003-044A,2026-07-15T17:47:18.032352,1.00271527,.00021334,1.4905,83.4977,31.0500,295.8427,0,U,27954,999,4685,0,.121E-5,0
INTELSAT 10-02,2004-022A,2026-07-15T21:55:05.859264,1.00261877,.0000887,0.0547,252.3831,313.3223,55.8090,0,U,28358,999,8084,0,-.23E-6,0
DIRECTV 8,2005-019A,2026-07-15T21:21:31.521024,1.00270575,.00031957,0.0200,58.3119,72.1396,4.6229,0,U,28659,999,7736,0,0,0
GALAXY 28 (G-28),2005-022A,2026-07-15T20:05:01.876128,1.00271914,.0002502,3.3698,78.5781,28.3488,100.9109,0,U,28702,999,5226,0,-.213E-5,0
GALAXY 16 (G-16),2006-023A,2026-07-15T19:44:24.224640,1.00271221,.00024886,0.0257,162.1509,310.2946,18.3053,0,U,29236,999,7326,0,-.137E-5,0
DIRECTV 9S,2006-043A,2026-07-15T21:26:38.531328,1.00271783,.00049182,2.4929,80.5558,32.0508,41.5847,0,U,29494,999,5167,0,-.125E-5,0
GALAXY 17 (G-17),2007-016B,2026-07-15T21:31:08.100192,1.00271643,.00035744,3.0422,79.5364,34.4922,57.4669,0,U,31307,999,7009,0,-.218E-5,0
INTELSAT 11 (IS-11),2007-044B,2026-07-15T21:55:13.346688,0.99052408,.00042262,3.6382,78.3202,100.3877,83.2951,0,U,32253,999,6873,0,-.184E-5,0
HORIZONS-2,2007-063B,2026-07-15T22:35:41.724096,1.00269034,.00035689,2.6743,80.2713,20.8088,97.7995,0,U,32388,999,6810,0,-.265E-5,0
DIRECTV 11,2008-013A,2026-07-15T12:14:38.600736,1.00271599,.00000802,0.0353,223.2222,348.5472,166.0602,0,U,32729,999,4587,0,-.136E-5,0
GALAXY 18 (G-18),2008-024A,2026-07-15T21:20:24.129024,1.00271674,.00028899,0.0149,64.7677,63.3023,2.7519,0,U,32951,999,4614,0,.15E-6,0
GALAXY 19 (G-19),2008-045A,2026-07-15T21:27:45.923328,1.00270984,.00023549,0.0554,246.8504,238.0585,33.7689,0,U,33376,999,6519,0,-.149E-5,0
FM-5,2009-034A,2026-07-13T21:36:30.896640,1.00271245,.00007579,0.0457,259.5714,86.9227,183.2440,0,U,35493,999,4691,0,-.205E-5,0
INTELSAT 14 (IS-14),2009-064A,2026-07-15T21:42:37.056384,1.00268429,.00022332,0.0156,329.2962,155.0389,90.0463,0,U,36097,999,6089,0,-.284E-5,0
INTELSAT 15 (IS-15),2009-067A,2026-07-15T22:19:32.831040,1.00268551,.00022525,0.0167,359.1777,122.2404,232.3618,0,U,36106,999,4151,0,-.195E-5,0
DIRECTV 12,2009-075A,2026-07-14T23:11:38.372640,1.00271543,.00003517,0.0065,109.4409,121.9560,306.6005,0,U,36131,999,4683,0,-.112E-5,0
INTELSAT 16 (IS-16),2010-006A,2026-07-15T21:33:45.348192,1.00269850,.00023643,0.0119,50.1644,87.9244,42.8707,0,U,36397,999,5994,0,-.255E-5,0
XM-5,2010-053A,2026-07-13T06:37:25.387392,1.00270903,.0001728,0.0648,265.0318,322.3275,47.9546,0,U,37185,999,5774,0,-.26E-6,0
INTELSAT 17 (IS-17),2010-065B,2026-07-15T22:14:18.333312,1.00270859,.00026381,0.0089,115.7191,18.9124,198.6970,0,U,37238,999,5353,0,-.12E-6,0
INTELSAT 28 (IS-28),2011-016A,2026-07-15T18:21:07.289280,1.00272227,.00036944,1.8781,82.2734,40.4095,54.4908,0,U,37392,999,5357,0,-.236E-5,0
INTELSAT 18 (IS-18),2011-056A,2026-07-15T14:13:30.485280,1.00274455,.00018888,0.0273,285.8659,199.7046,201.2331,0,U,37834,999,5409,0,.43E-6,0
INTELSAT 22 (IS-22),2012-011A,2026-07-15T22:15:55.677600,1.00271872,.00018533,0.0158,42.6258,81.1126,216.1062,0,U,38098,999,747,0,-.69E-6,0
INTELSAT 19 (IS-19),2012-030A,2026-07-15T19:17:26.809728,1.00271388,.00031978,0.0179,26.2491,101.7096,261.0415,0,U,38356,999,5073,0,-.67E-6,0
INTELSAT 20 (IS-20),2012-043A,2026-07-15T22:14:55.773024,1.00272905,.0001385,0.0123,66.6866,109.7940,159.5195,0,U,38740,999,5103,0,-.35E-6,0
INTELSAT 21 (IS-21),2012-045A,2026-07-15T19:56:15.587808,1.00272766,.00015453,0.0518,250.4496,235.5039,48.7780,0,U,38749,999,5081,0,-.295E-5,0
